{
    "links": {
        "self": "http://www.neowsapp.com/rest/v1/neo/54073367?api_key=iIulBulltgU6a56xZRHN4H3l9WmuAYTsLGpBGhQ2"
    },
    "id": "54073367",
    "neo_reference_id": "54073367",
    "name": "(2020 UU)",
    "designation": "2020 UU",
    "nasa_jpl_url": "http://ssd.jpl.nasa.gov/sbdb.cgi?sstr=54073367",
    "absolute_magnitude_h": 28.767,
    "estimated_diameter": {
        "kilometers": {
            "estimated_diameter_min": 0.0046898071,
            "estimated_diameter_max": 0.0104867274
        },
        "meters": {
            "estimated_diameter_min": 4.6898070656,
            "estimated_diameter_max": 10.4867274001
        },
        "miles": {
            "estimated_diameter_min": 0.0029141101,
            "estimated_diameter_max": 0.0065161483
        },
        "feet": {
            "estimated_diameter_min": 15.3865066133,
            "estimated_diameter_max": 34.4052747235
        }
    },
    "is_potentially_hazardous_asteroid": false,
    "close_approach_data": [
        {
            "close_approach_date": "2018-11-15",
            "close_approach_date_full": "2018-Nov-15 09:26",
            "epoch_date_close_approach": 1542273960000,
            "relative_velocity": {
                "kilometers_per_second": "22.3216396887",
                "kilometers_per_hour": "80357.9028791627",
                "miles_per_hour": "49931.2758195553"
            },
            "miss_distance": {
                "astronomical": "0.4573111657",
                "lunar": "177.8940434573",
                "kilometers": "68412776.315937059",
                "miles": "42509728.0004430542"
            },
            "orbiting_body": "Earth"
        },
        {
            "close_approach_date": "2020-10-14",
            "close_approach_date_full": "2020-Oct-14 16:55",
            "epoch_date_close_approach": 1602694500000,
            "relative_velocity": {
                "kilometers_per_second": "9.6831870936",
                "kilometers_per_hour": "34859.4735369039",
                "miles_per_hour": "21660.321209639"
            },
            "miss_distance": {
                "astronomical": "0.0081998776",
                "lunar": "3.1897523864",
                "kilometers": "1226684.223220712",
                "miles": "762226.2314093456"
            },
            "orbiting_body": "Moon"
        },
        {
            "close_approach_date": "2020-10-14",
            "close_approach_date_full": "2020-Oct-14 20:35",
            "epoch_date_close_approach": 1602707700000,
            "relative_velocity": {
                "kilometers_per_second": "8.7742150972",
                "kilometers_per_hour": "31587.1743500917",
                "miles_per_hour": "19627.0417510334"
            },
            "miss_distance": {
                "astronomical": "0.0062188144",
                "lunar": "2.4191188016",
                "kilometers": "930321.388165328",
                "miles": "578074.9049164064"
            },
            "orbiting_body": "Earth"
        }
    ],
    "orbital_data": {
        "orbit_id": "1",
        "orbit_determination_date": "2020-10-18 00:12:33",
        "first_observation_date": "2020-10-17",
        "last_observation_date": "2020-10-18",
        "data_arc_in_days": 1,
        "observations_used": 21,
        "orbit_uncertainty": "8",
        "minimum_orbit_intersection": ".00189446",
        "jupiter_tisserand_invariant": "4.327",
        "epoch_osculation": "2459140.5",
        "eccentricity": ".4069808403095872",
        "semi_major_axis": "1.564884530197494",
        "inclination": "1.513429588466445",
        "ascending_node_longitude": "196.5251360122497",
        "orbital_period": "715.0260638835358",
        "perihelion_distance": ".9280065091102444",
        "perihelion_argument": "143.586694068525",
        "aphelion_distance": "2.201762551284744",
        "perihelion_time": "2459104.162433886016",
        "mean_anomaly": "18.29517057040451",
        "mean_motion": ".5034781502155663",
        "equinox": "J2000",
        "orbit_class": {
            "orbit_class_type": "APO",
            "orbit_class_description": "Near-Earth asteroid orbits which cross the Earth’s orbit similar to that of 1862 Apollo",
            "orbit_class_range": "a (semi-major axis) > 1.0 AU; q (perihelion) < 1.017 AU"
        }
    },
    "is_sentry_object": false
}